O3B MPOWER F1           
1 54755U 22174A   23264.71665208 -.00000015  00000+0  00000+0 0  9999
2 54755   0.0471  16.9927 0004851 178.2621 212.7653  5.00118394 15349
